QIANFAN-81              
1 63167U 25046J   26003.93009346  .00000268  00000+0  39588-3 0  9996
2 63167  88.9783 317.5770 0016685  58.8173 301.4611 13.51011337 50484
QIANFAN-82              
1 63168U 25046K   26003.89052556  .00000267  00000+0  39471-3 0  9993
2 63168  88.9783 317.6251 0014875  65.9891 294.2815 13.50984203 50468
QIANFAN-83              
1 63169U 25046L   26003.88584257  .00000316  00000+0  39386-3 0  9991
2 63169  88.9783 317.3585 0016036  52.1027 308.1578 13.61984487 50610
QIANFAN-84              
1 63170U 25046M   26003.91815683  .00000244  00000+0  35828-3 0  9994
2 63170  88.9783 317.7548 0017821  62.6057 297.6905 13.50994287 50395
QIANFAN-85              
1 63171U 25046N   26003.91507383  .00000253  00000+0  37361-3 0  9994
2 63171  88.9782 317.6268 0015225  64.8751 295.3978 13.50985262 50460
QIANFAN-86              
1 63172U 25046P   26003.92340813  .00000252  00000+0  37205-3 0  9995
2 63172  88.9785 317.4887 0013128  68.7355 291.5197 13.50984795 50542
QIANFAN-87              
1 63173U 25046Q   26003.89477443  .00000272  00000+0  40296-3 0  9998
2 63173  88.9781 317.6024 0013754  64.7334 295.5241 13.50982366 50470
QIANFAN-88              
1 63174U 25046R   26003.91099955  .00000240  00000+0  35284-3 0  9996
2 63174  88.9783 317.5558 0014187  71.5008 288.7683 13.50988890 50505
